ONEWEB-0160             
1 48060U 21025U   23296.15073827  .00000063  00000+0  13874-3 0  9997
2 48060  87.9012 152.8608 0002582  68.3010 291.8393 13.13470219126489
ONEWEB-0163             
1 48061U 21025V   23295.90739095  .00000331  00000+0  87155-3 0  9997
2 48061  87.9019 152.9012 0001352  87.0153 273.1130 13.13471496126577
ONEWEB-0159             
1 48062U 21025W   23295.89681118  .00000304  00000+0  79759-3 0  9999
2 48062  87.9018 152.8895 0001775  89.6154 270.5179 13.13469067126499
ONEWEB-0164             
1 48063U 21025X   23296.86806431 -.00000500  00000+0 -14039-2 0  9994
2 48063  87.9018 152.7053 0001539  72.4913 287.6384 13.13469670126617
ONEWEB-0167             
1 48064U 21025Y   23296.51788557 -.00001680  00000+0 -46348-2 0  9993
2 48064  87.9019 152.7843 0001583  82.6479 277.4830 13.13477870126541
ONEWEB-0166             
1 48065U 21025Z   23295.85448050 -.00000015  00000+0 -77147-4 0  9995
2 48065  87.9018 152.9085 0001660  88.2707 271.8612 13.13468220126537
ONEWEB-0151             
1 48066U 21025AA  23296.84691594 -.00000041  00000+0 -14594-3 0  9994
2 48066  87.9018 152.7198 0001567  68.2444 291.8851 13.13471751126612
ONEWEB-0170             
1 48067U 21025AB  23295.86296198 -.00000780  00000+0 -21702-2 0  9995
2 48067  87.9025 152.9121 0003111  66.2019 293.9436 13.13476867126437
