<?xml version="1.0" encoding="UTF-8"?>
<ndm xmlns:xsi="http://www.w3.org/2001/XMLSchema-instance" xsi:noNamespaceSchemaLocation="https://sanaregistry.org/r/ndmxml_unqualified/ndmxml-2.0.0-master-2.0.xsd">
<omm id="CCSDS_OMM_VERS" version="2.0">
<header><CREATION_DATE/><ORIGINATOR/></header><body><segment><metadata><OBJECT_NAME>ONEWEB-0160</OBJECT_NAME><OBJECT_ID>2021-025U</OBJECT_ID><CENTER_NAME>EARTH</CENTER_NAME><REF_FRAME>TEME</REF_FRAME><TIME_SYSTEM>UTC</TIME_SYSTEM><MEAN_ELEMENT_THEORY>SGP4</MEAN_ELEMENT_THEORY></metadata><data><meanElements><EPOCH>2023-10-23T03:37:03.786528</EPOCH><MEAN_MOTION>13.13470219</MEAN_MOTION><ECCENTRICITY>.0002582</ECCENTRICITY><INCLINATION>87.9012</INCLINATION><RA_OF_ASC_NODE>152.8608</RA_OF_ASC_NODE><ARG_OF_PERICENTER>68.3010</ARG_OF_PERICENTER><MEAN_ANOMALY>291.8393</MEAN_ANOMALY></meanElements><tleParameters><EPHEMERIS_TYPE>0</EPHEMERIS_TYPE><CLASSIFICATION_TYPE>U</CLASSIFICATION_TYPE><NORAD_CAT_ID>48060</NORAD_CAT_ID><ELEMENT_SET_NO>999</ELEMENT_SET_NO><REV_AT_EPOCH>12648</REV_AT_EPOCH><BSTAR>.13874E-3</BSTAR><MEAN_MOTION_DOT>.63E-6</MEAN_MOTION_DOT><MEAN_MOTION_DDOT>0</MEAN_MOTION_DDOT></tleParameters></data></segment></body></omm>
<omm id="CCSDS_OMM_VERS" version="2.0">
<header><CREATION_DATE/><ORIGINATOR/></header><body><segment><metadata><OBJECT_NAME>ONEWEB-0163</OBJECT_NAME><OBJECT_ID>2021-025V</OBJECT_ID><CENTER_NAME>EARTH</CENTER_NAME><REF_FRAME>TEME</REF_FRAME><TIME_SYSTEM>UTC</TIME_SYSTEM><MEAN_ELEMENT_THEORY>SGP4</MEAN_ELEMENT_THEORY></metadata><data><meanElements><EPOCH>2023-10-22T21:46:38.578080</EPOCH><MEAN_MOTION>13.13471496</MEAN_MOTION><ECCENTRICITY>.0001352</ECCENTRICITY><INCLINATION>87.9019</INCLINATION><RA_OF_ASC_NODE>152.9012</RA_OF_ASC_NODE><ARG_OF_PERICENTER>87.0153</ARG_OF_PERICENTER><MEAN_ANOMALY>273.1130</MEAN_ANOMALY></meanElements><tleParameters><EPHEMERIS_TYPE>0</EPHEMERIS_TYPE><CLASSIFICATION_TYPE>U</CLASSIFICATION_TYPE><NORAD_CAT_ID>48061</NORAD_CAT_ID><ELEMENT_SET_NO>999</ELEMENT_SET_NO><REV_AT_EPOCH>12657</REV_AT_EPOCH><BSTAR>.87155E-3</BSTAR><MEAN_MOTION_DOT>.331E-5</MEAN_MOTION_DOT><MEAN_MOTION_DDOT>0</MEAN_MOTION_DDOT></tleParameters></data></segment></body></omm>
<omm id="CCSDS_OMM_VERS" version="2.0">
<header><CREATION_DATE/><ORIGINATOR/></header><body><segment><metadata><OBJECT_NAME>ONEWEB-0159</OBJECT_NAME><OBJECT_ID>2021-025W</OBJECT_ID><CENTER_NAME>EARTH</CENTER_NAME><REF_FRAME>TEME</REF_FRAME><TIME_SYSTEM>UTC</TIME_SYSTEM><MEAN_ELEMENT_THEORY>SGP4</MEAN_ELEMENT_THEORY></metadata><data><meanElements><EPOCH>2023-10-22T21:31:24.485952</EPOCH><MEAN_MOTION>13.13469067</MEAN_MOTION><ECCENTRICITY>.0001775</ECCENTRICITY><INCLINATION>87.9018</INCLINATION><RA_OF_ASC_NODE>152.8895</RA_OF_ASC_NODE><ARG_OF_PERICENTER>89.6154</ARG_OF_PERICENTER><MEAN_ANOMALY>270.5179</MEAN_ANOMALY></meanElements><tleParameters><EPHEMERIS_TYPE>0</EPHEMERIS_TYPE><CLASSIFICATION_TYPE>U</CLASSIFICATION_TYPE><NORAD_CAT_ID>48062</NORAD_CAT_ID><ELEMENT_SET_NO>999</ELEMENT_SET_NO><REV_AT_EPOCH>12649</REV_AT_EPOCH><BSTAR>.79759E-3</BSTAR><MEAN_MOTION_DOT>.304E-5</MEAN_MOTION_DOT><MEAN_MOTION_DDOT>0</MEAN_MOTION_DDOT></tleParameters></data></segment></body></omm>
<omm id="CCSDS_OMM_VERS" version="2.0">
<header><CREATION_DATE/><ORIGINATOR/></header><body><segment><metadata><OBJECT_NAME>ONEWEB-0164</OBJECT_NAME><OBJECT_ID>2021-025X</OBJECT_ID><CENTER_NAME>EARTH</CENTER_NAME><REF_FRAME>TEME</REF_FRAME><TIME_SYSTEM>UTC</TIME_SYSTEM><MEAN_ELEMENT_THEORY>SGP4</MEAN_ELEMENT_THEORY></metadata><data><meanElements><EPOCH>2023-10-23T20:50:00.756384</EPOCH><MEAN_MOTION>13.13469670</MEAN_MOTION><ECCENTRICITY>.0001539</ECCENTRICITY><INCLINATION>87.9018</INCLINATION><RA_OF_ASC_NODE>152.7053</RA_OF_ASC_NODE><ARG_OF_PERICENTER>72.4913</ARG_OF_PERICENTER><MEAN_ANOMALY>287.6384</MEAN_ANOMALY></meanElements><tleParameters><EPHEMERIS_TYPE>0</EPHEMERIS_TYPE><CLASSIFICATION_TYPE>U</CLASSIFICATION_TYPE><NORAD_CAT_ID>48063</NORAD_CAT_ID><ELEMENT_SET_NO>999</ELEMENT_SET_NO><REV_AT_EPOCH>12661</REV_AT_EPOCH><BSTAR>-.14039E-2</BSTAR><MEAN_MOTION_DOT>-.5E-5</MEAN_MOTION_DOT><MEAN_MOTION_DDOT>0</MEAN_MOTION_DDOT></tleParameters></data></segment></body></omm>
<omm id="CCSDS_OMM_VERS" version="2.0">
<header><CREATION_DATE/><ORIGINATOR/></header><body><segment><metadata><OBJECT_NAME>ONEWEB-0167</OBJECT_NAME><OBJECT_ID>2021-025Y</OBJECT_ID><CENTER_NAME>EARTH</CENTER_NAME><REF_FRAME>TEME</REF_FRAME><TIME_SYSTEM>UTC</TIME_SYSTEM><MEAN_ELEMENT_THEORY>SGP4</MEAN_ELEMENT_THEORY></metadata><data><meanElements><EPOCH>2023-10-23T12:25:45.313248</EPOCH><MEAN_MOTION>13.13477870</MEAN_MOTION><ECCENTRICITY>.0001583</ECCENTRICITY><INCLINATION>87.9019</INCLINATION><RA_OF_ASC_NODE>152.7843</RA_OF_ASC_NODE><ARG_OF_PERICENTER>82.6479</ARG_OF_PERICENTER><MEAN_ANOMALY>277.4830</MEAN_ANOMALY></meanElements><tleParameters><EPHEMERIS_TYPE>0</EPHEMERIS_TYPE><CLASSIFICATION_TYPE>U</CLASSIFICATION_TYPE><NORAD_CAT_ID>48064</NORAD_CAT_ID><ELEMENT_SET_NO>999</ELEMENT_SET_NO><REV_AT_EPOCH>12654</REV_AT_EPOCH><BSTAR>-.46348E-2</BSTAR><MEAN_MOTION_DOT>-.168E-4</MEAN_MOTION_DOT><MEAN_MOTION_DDOT>0</MEAN_MOTION_DDOT></tleParameters></data></segment></body></omm>
<omm id="CCSDS_OMM_VERS" version="2.0">
<header><CREATION_DATE/><ORIGINATOR/></header><body><segment><metadata><OBJECT_NAME>ONEWEB-0166</OBJECT_NAME><OBJECT_ID>2021-025Z</OBJECT_ID><CENTER_NAME>EARTH</CENTER_NAME><REF_FRAME>TEME</REF_FRAME><TIME_SYSTEM>UTC</TIME_SYSTEM><MEAN_ELEMENT_THEORY>SGP4</MEAN_ELEMENT_THEORY></metadata><data><meanElements><EPOCH>2023-10-22T20:30:27.115200</EPOCH><MEAN_MOTION>13.13468220</MEAN_MOTION><ECCENTRICITY>.000166</ECCENTRICITY><INCLINATION>87.9018</INCLINATION><RA_OF_ASC_NODE>152.9085</RA_OF_ASC_NODE><ARG_OF_PERICENTER>88.2707</ARG_OF_PERICENTER><MEAN_ANOMALY>271.8612</MEAN_ANOMALY></meanElements><tleParameters><EPHEMERIS_TYPE>0</EPHEMERIS_TYPE><CLASSIFICATION_TYPE>U</CLASSIFICATION_TYPE><NORAD_CAT_ID>48065</NORAD_CAT_ID><ELEMENT_SET_NO>999</ELEMENT_SET_NO><REV_AT_EPOCH>12653</REV_AT_EPOCH><BSTAR>-.77147E-4</BSTAR><MEAN_MOTION_DOT>-.15E-6</MEAN_MOTION_DOT><MEAN_MOTION_DDOT>0</MEAN_MOTION_DDOT></tleParameters></data></segment></body></omm>
<omm id="CCSDS_OMM_VERS" version="2.0">
<header><CREATION_DATE/><ORIGINATOR/></header><body><segment><metadata><OBJECT_NAME>ONEWEB-0151</OBJECT_NAME><OBJECT_ID>2021-025AA</OBJECT_ID><CENTER_NAME>EARTH</CENTER_NAME><REF_FRAME>TEME</REF_FRAME><TIME_SYSTEM>UTC</TIME_SYSTEM><MEAN_ELEMENT_THEORY>SGP4</MEAN_ELEMENT_THEORY></metadata><data><meanElements><EPOCH>2023-10-23T20:19:33.537216</EPOCH><MEAN_MOTION>13.13471751</MEAN_MOTION><ECCENTRICITY>.0001567</ECCENTRICITY><INCLINATION>87.9018</INCLINATION><RA_OF_ASC_NODE>152.7198</RA_OF_ASC_NODE><ARG_OF_PERICENTER>68.2444</ARG_OF_PERICENTER><MEAN_ANOMALY>291.8851</MEAN_ANOMALY></meanElements><tleParameters><EPHEMERIS_TYPE>0</EPHEMERIS_TYPE><CLASSIFICATION_TYPE>U</CLASSIFICATION_TYPE><NORAD_CAT_ID>48066</NORAD_CAT_ID><ELEMENT_SET_NO>999</ELEMENT_SET_NO><REV_AT_EPOCH>12661</REV_AT_EPOCH><BSTAR>-.14594E-3</BSTAR><MEAN_MOTION_DOT>-.41E-6</MEAN_MOTION_DOT><MEAN_MOTION_DDOT>0</MEAN_MOTION_DDOT></tleParameters></data></segment></body></omm>
<omm id="CCSDS_OMM_VERS" version="2.0">
<header><CREATION_DATE/><ORIGINATOR/></header><body><segment><metadata><OBJECT_NAME>ONEWEB-0170</OBJECT_NAME><OBJECT_ID>2021-025AB</OBJECT_ID><CENTER_NAME>EARTH</CENTER_NAME><REF_FRAME>TEME</REF_FRAME><TIME_SYSTEM>UTC</TIME_SYSTEM><MEAN_ELEMENT_THEORY>SGP4</MEAN_ELEMENT_THEORY></metadata><data><meanElements><EPOCH>2023-10-22T20:42:39.915072</EPOCH><MEAN_MOTION>13.13476867</MEAN_MOTION><ECCENTRICITY>.0003111</ECCENTRICITY><INCLINATION>87.9025</INCLINATION><RA_OF_ASC_NODE>152.9121</RA_OF_ASC_NODE><ARG_OF_PERICENTER>66.2019</ARG_OF_PERICENTER><MEAN_ANOMALY>293.9436</MEAN_ANOMALY></meanElements><tleParameters><EPHEMERIS_TYPE>0</EPHEMERIS_TYPE><CLASSIFICATION_TYPE>U</CLASSIFICATION_TYPE><NORAD_CAT_ID>48067</NORAD_CAT_ID><ELEMENT_SET_NO>999</ELEMENT_SET_NO><REV_AT_EPOCH>12643</REV_AT_EPOCH><BSTAR>-.21702E-2</BSTAR><MEAN_MOTION_DOT>-.78E-5</MEAN_MOTION_DOT><MEAN_MOTION_DDOT>0</MEAN_MOTION_DDOT></tleParameters></data></segment></body></omm>

</ndm>
